{
  "type": "FeatureCollection",
  "features": [
    {
      "type": "Feature",
      "properties": {
        "norad_id": 33791,
        "name": "COSMOS 2251 DEB",
        "group": "cosmos-2251-debris",
        "lat": 73.67936919252647,
        "lon": 87.12313216579469,
        "alt_km": 751.1155289269755,
        "timestamp": "2025-12-26T21:25:53.401987+00:00",
        "meta_object_name": "COSMOS 2251 DEB",
        "meta_object_id": "1993-036AG",
        "meta_epoch": "2025-12-26T11:46:35.673024",
        "meta_mean_motion": 14.43199617,
        "meta_eccentricity": 0.00299529,
        "meta_inclination": 74.1753,
        "meta_ra_of_asc_node": 12.2562,
        "meta_arg_of_pericenter": 206.6883,
        "meta_mean_anomaly": 310.3672,
        "meta_ephemeris_type": 0,
        "meta_classification_type": "U",
        "meta_norad_cat_id": 33791,
        "meta_element_set_no": 999,
        "meta_rev_at_epoch": 88250,
        "meta_bstar": 0.00094270423,
        "meta_mean_motion_dot": 3.162e-05,
        "meta_mean_motion_ddot": 0,
        "tle_line1": "1 33791U 93036AG  25360.49069066  .00003162  00000+0  94270-3 0  9996",
        "tle_line2": "2 33791  74.1753  12.2562 0029952 206.6883 310.3672 14.43199617882500"
      },
      "geometry": {
        "type": "Point",
        "coordinates": [
          87.12313216579469,
          73.67936919252647
        ]
      }
    },
    {
      "type": "Feature",
      "properties": {
        "norad_id": 33792,
        "name": "COSMOS 2251 DEB",
        "group": "cosmos-2251-debris",
        "lat": -38.00630158880742,
        "lon": 155.7844754864861,
        "alt_km": 1401.2908934595353,
        "timestamp": "2025-12-26T21:25:53.401998+00:00",
        "meta_object_name": "COSMOS 2251 DEB",
        "meta_object_id": "1993-036AH",
        "meta_epoch": "2025-12-26T08:35:34.013184",
        "meta_mean_motion": 13.45850791,
        "meta_eccentricity": 0.04279045,
        "meta_inclination": 73.9014,
        "meta_ra_of_asc_node": 323.5961,
        "meta_arg_of_pericenter": 25.7686,
        "meta_mean_anomaly": 124.4062,
        "meta_ephemeris_type": 0,
        "meta_classification_type": "U",
        "meta_norad_cat_id": 33792,
        "meta_element_set_no": 999,
        "meta_rev_at_epoch": 82625,
        "meta_bstar": 0.0012596995,
        "meta_mean_motion_dot": 1.288e-05,
        "meta_mean_motion_ddot": 0,
        "tle_line1": "1 33792U 93036AH  25360.35803256  .00001288  00000+0  12597-2 0  9997",
        "tle_line2": "2 33792  73.9014 323.5961 0427904  25.7686 124.4062 13.45850791826254"
      },
      "geometry": {
        "type": "Point",
        "coordinates": [
          155.7844754864861,
          -38.00630158880742
        ]
      }
    },
    {
      "type": "Feature",
      "properties": {
        "norad_id": 33793,
        "name": "COSMOS 2251 DEB",
        "group": "cosmos-2251-debris",
        "lat": -73.46506503786492,
        "lon": 19.591541764510442,
        "alt_km": 749.7083751768823,
        "timestamp": "2025-12-26T21:25:53.402008+00:00",
        "meta_object_name": "COSMOS 2251 DEB",
        "meta_object_id": "1993-036AJ",
        "meta_epoch": "2025-12-26T12:08:31.487136",
        "meta_mean_motion": 14.27770959,
        "meta_eccentricity": 0.00789995,
        "meta_inclination": 73.9811,
        "meta_ra_of_asc_node": 124.8977,
        "meta_arg_of_pericenter": 272.3377,
        "meta_mean_anomaly": 164.9424,
        "meta_ephemeris_type": 0,
        "meta_classification_type": "U",
        "meta_norad_cat_id": 33793,
        "meta_element_set_no": 999,
        "meta_rev_at_epoch": 87403,
        "meta_bstar": 0.00080826586,
        "meta_mean_motion_dot": 2.037e-05,
        "meta_mean_motion_ddot": 0,
        "tle_line1": "1 33793U 93036AJ  25360.50591999  .00002037  00000+0  80827-3 0  9998",
        "tle_line2": "2 33793  73.9811 124.8977 0078999 272.3377 164.9424 14.27770959874030"
      },
      "geometry": {
        "type": "Point",
        "coordinates": [
          19.591541764510442,
          -73.46506503786492
        ]
      }
    },
    {
      "type": "Feature",
      "properties": {
        "norad_id": 33795,
        "name": "COSMOS 2251 DEB",
        "group": "cosmos-2251-debris",
        "lat": -41.07743437822266,
        "lon": -117.83909497921131,
        "alt_km": 557.4316136627904,
        "timestamp": "2025-12-26T21:25:53.402020+00:00",
        "meta_object_name": "COSMOS 2251 DEB",
        "meta_object_id": "1993-036AL",
        "meta_epoch": "2025-12-26T14:46:55.784352",
        "meta_mean_motion": 15.05975439,
        "meta_eccentricity": 0.00303018,
        "meta_inclination": 74.0312,
        "meta_ra_of_asc_node": 48.2751,
        "meta_arg_of_pericenter": 126.0889,
        "meta_mean_anomaly": 35.1683,
        "meta_ephemeris_type": 0,
        "meta_classification_type": "U",
        "meta_norad_cat_id": 33795,
        "meta_element_set_no": 999,
        "meta_rev_at_epoch": 90230,
        "meta_bstar": 0.0011773284,
        "meta_mean_motion_dot": 0.00017331,
        "meta_mean_motion_ddot": 0,
        "tle_line1": "1 33795U 93036AL  25360.61592343  .00017331  00000+0  11773-2 0  9992",
        "tle_line2": "2 33795  74.0312  48.2751 0030301 126.0889  35.1683 15.05975439902302"
      },
      "geometry": {
        "type": "Point",
        "coordinates": [
          -117.83909497921131,
          -41.07743437822266
        ]
      }
    },
    {
      "type": "Feature",
      "properties": {
        "norad_id": 33797,
        "name": "COSMOS 2251 DEB",
        "group": "cosmos-2251-debris",
        "lat": 51.406311240146756,
        "lon": 167.05661926377482,
        "alt_km": 659.3230269478627,
        "timestamp": "2025-12-26T21:25:53.402035+00:00",
        "meta_object_name": "COSMOS 2251 DEB",
        "meta_object_id": "1993-036AN",
        "meta_epoch": "2025-12-26T11:42:31.108320",
        "meta_mean_motion": 14.57895516,
        "meta_eccentricity": 0.00603517,
        "meta_inclination": 74.0465,
        "meta_ra_of_asc_node": 8.8293,
        "meta_arg_of_pericenter": 92.5311,
        "meta_mean_anomaly": 67.2734,
        "meta_ephemeris_type": 0,
        "meta_classification_type": "U",
        "meta_norad_cat_id": 33797,
        "meta_element_set_no": 999,
        "meta_rev_at_epoch": 89185,
        "meta_bstar": 0.00040114681,
        "meta_mean_motion_dot": 1.856e-05,
        "meta_mean_motion_ddot": 0,
        "tle_line1": "1 33797U 93036AN  25360.48786005  .00001856  00000+0  40115-3 0  9997",
        "tle_line2": "2 33797  74.0465   8.8293 0060351  92.5311  67.2734 14.57895516891854"
      },
      "geometry": {
        "type": "Point",
        "coordinates": [
          167.05661926377482,
          51.406311240146756
        ]
      }
    },
    {
      "type": "Feature",
      "properties": {
        "norad_id": 33798,
        "name": "COSMOS 2251 DEB",
        "group": "cosmos-2251-debris",
        "lat": 47.41610637746053,
        "lon": 127.70034740045287,
        "alt_km": 804.3651738914778,
        "timestamp": "2025-12-26T21:25:53.402046+00:00",
        "meta_object_name": "COSMOS 2251 DEB",
        "meta_object_id": "1993-036AP",
        "meta_epoch": "2025-12-25T15:49:19.517088",
        "meta_mean_motion": 14.44631109,
        "meta_eccentricity": 0.0092307,
        "meta_inclination": 74.0295,
        "meta_ra_of_asc_node": 111.8414,
        "meta_arg_of_pericenter": 230.4067,
        "meta_mean_anomaly": 246.0836,
        "meta_ephemeris_type": 0,
        "meta_classification_type": "U",
        "meta_norad_cat_id": 33798,
        "meta_element_set_no": 999,
        "meta_rev_at_epoch": 88780,
        "meta_bstar": 0.00020296,
        "meta_mean_motion_dot": 7.11e-06,
        "meta_mean_motion_ddot": 0,
        "tle_line1": "1 33798U 93036AP  25359.65925367  .00000711  00000+0  20296-3 0  9998",
        "tle_line2": "2 33798  74.0295 111.8414 0092307 230.4067 246.0836 14.44631109887805"
      },
      "geometry": {
        "type": "Point",
        "coordinates": [
          127.70034740045287,
          47.41610637746053
        ]
      }
    },
    {
      "type": "Feature",
      "properties": {
        "norad_id": 33799,
        "name": "COSMOS 2251 DEB",
        "group": "cosmos-2251-debris",
        "lat": -71.29304952794926,
        "lon": -3.8200030080521596,
        "alt_km": 651.3337157114574,
        "timestamp": "2025-12-26T21:25:53.402056+00:00",
        "meta_object_name": "COSMOS 2251 DEB",
        "meta_object_id": "1993-036AQ",
        "meta_epoch": "2025-12-26T10:32:18.881088",
        "meta_mean_motion": 14.79835372,
        "meta_eccentricity": 0.00220791,
        "meta_inclination": 74.0323,
        "meta_ra_of_asc_node": 54.8079,
        "meta_arg_of_pericenter": 120.4033,
        "meta_mean_anomaly": 262.4374,
        "meta_ephemeris_type": 0,
        "meta_classification_type": "U",
        "meta_norad_cat_id": 33799,
        "meta_element_set_no": 999,
        "meta_rev_at_epoch": 89014,
        "meta_bstar": 0.0013692129,
        "meta_mean_motion_dot": 0.00010343,
        "meta_mean_motion_ddot": 0,
        "tle_line1": "1 33799U 93036AQ  25360.43910742  .00010343  00000+0  13692-2 0  9991",
        "tle_line2": "2 33799  74.0323  54.8079 0022079 120.4033 262.4374 14.79835372890147"
      },
      "geometry": {
        "type": "Point",
        "coordinates": [
          -3.8200030080521596,
          -71.29304952794926
        ]
      }
    }
  ]
}